[
  {
    "OBJECT_NAME": "STARLINK-1328",
    "OBJECT_ID": "20025AX",
    "EPOCH": "2025-11-11T08:00:03.000384",
    "MEAN_MOTION": 15.7256282,
    "ECCENTRICITY": 0.0011293,
    "INCLINATION": 53.0496,
    "RA_OF_ASC_NODE": 219.3122,
    "ARG_OF_PERICENTER": 80.9781,
    "MEAN_ANOMALY": 234.1343,
    "EPHEMERIS_TYPE": 0,
    "CLASSIFICATION_TYPE": "U",
    "NORAD_CAT_ID": 45576,
    "ELEMENT_SET_NO": 999,
    "REV_AT_EPOCH": 592,
    "BSTAR": 0.00091318,
    "MEAN_MOTION_DOT": 0.00126449,
    "MEAN_MOTION_DDOT": 0.0,
    "TLE_LINE1": "1 45576U 20025AX  25315.33336806  .00126449  00000+0  91318-3 0  9994",
    "TLE_LINE2": "2 45576  53.0496 219.3122 0011293  80.9781 234.1343 15.72562820  5929",
    "COMMENT": "Grouped by shell and plane from TLE"
  },
  {
    "OBJECT_NAME": "STARLINK-3763",
    "OBJECT_ID": "22051Z",
    "EPOCH": "2025-11-11T08:00:03.000384",
    "MEAN_MOTION": 15.58329423,
    "ECCENTRICITY": 0.0006318,
    "INCLINATION": 53.182,
    "RA_OF_ASC_NODE": 210.4294,
    "ARG_OF_PERICENTER": 97.4613,
    "MEAN_ANOMALY": 41.789,
    "EPHEMERIS_TYPE": 0,
    "CLASSIFICATION_TYPE": "U",
    "NORAD_CAT_ID": 52556,
    "ELEMENT_SET_NO": 999,
    "REV_AT_EPOCH": 594,
    "BSTAR": 0.002127,
    "MEAN_MOTION_DOT": 0.00167384,
    "MEAN_MOTION_DDOT": 0.0,
    "TLE_LINE1": "1 52556U 22051Z   25315.33336806  .00167384  00000+0  21270-2 0  9993",
    "TLE_LINE2": "2 52556  53.1820 210.4294 0006318  97.4613  41.7890 15.58329423  5943",
    "COMMENT": "Grouped by shell and plane from TLE"
  },
  {
    "OBJECT_NAME": "STARLINK-11518 [DTC]",
    "OBJECT_ID": "24254A",
    "EPOCH": "2025-11-11T03:36:14.955840",
    "MEAN_MOTION": 15.70849045,
    "ECCENTRICITY": 0.0001561,
    "INCLINATION": 43.0007,
    "RA_OF_ASC_NODE": 217.8956,
    "ARG_OF_PERICENTER": 284.0597,
    "MEAN_ANOMALY": 76.0097,
    "EPHEMERIS_TYPE": 0,
    "CLASSIFICATION_TYPE": "U",
    "NORAD_CAT_ID": 62462,
    "ELEMENT_SET_NO": 999,
    "REV_AT_EPOCH": 5076,
    "BSTAR": 0.0015015,
    "MEAN_MOTION_DOT": 0.00196927,
    "MEAN_MOTION_DDOT": 0.0,
    "TLE_LINE1": "1 62462U 24254A   25315.15017310  .00196927  00000+0  15015-2 0  9998",
    "TLE_LINE2": "2 62462  43.0007 217.8956 0001561 284.0597  76.0097 15.70849045 50762",
    "COMMENT": "Grouped by shell and plane from TLE"
  },
  {
    "OBJECT_NAME": "STARLINK-11455 [DTC]",
    "OBJECT_ID": "24254B",
    "EPOCH": "2025-11-11T02:12:18.916704",
    "MEAN_MOTION": 15.70796687,
    "ECCENTRICITY": 0.0001568,
    "INCLINATION": 42.9984,
    "RA_OF_ASC_NODE": 218.3202,
    "ARG_OF_PERICENTER": 261.3065,
    "MEAN_ANOMALY": 98.7625,
    "EPHEMERIS_TYPE": 0,
    "CLASSIFICATION_TYPE": "U",
    "NORAD_CAT_ID": 62463,
    "ELEMENT_SET_NO": 999,
    "REV_AT_EPOCH": 5074,
    "BSTAR": 0.0021141,
    "MEAN_MOTION_DOT": 0.00279632,
    "MEAN_MOTION_DDOT": 0.0,
    "TLE_LINE1": "1 62463U 24254B   25315.09188561  .00279632  00000+0  21141-2 0  9991",
    "TLE_LINE2": "2 62463  42.9984 218.3202 0001568 261.3065  98.7625 15.70796687 50749",
    "COMMENT": "Grouped by shell and plane from TLE"
  },
  {
    "OBJECT_NAME": "STARLINK-11459 [DTC]",
    "OBJECT_ID": "24254C",
    "EPOCH": "2025-11-11T03:33:45.009504",
    "MEAN_MOTION": 15.75303617,
    "ECCENTRICITY": 0.0005099,
    "INCLINATION": 42.9945,
    "RA_OF_ASC_NODE": 216.9818,
    "ARG_OF_PERICENTER": 228.2513,
    "MEAN_ANOMALY": 131.792,
    "EPHEMERIS_TYPE": 0,
    "CLASSIFICATION_TYPE": "U",
    "NORAD_CAT_ID": 62464,
    "ELEMENT_SET_NO": 999,
    "REV_AT_EPOCH": 5075,
    "BSTAR": 0.0023024,
    "MEAN_MOTION_DOT": 0.00373723,
    "MEAN_MOTION_DDOT": 0.0,
    "TLE_LINE1": "1 62464U 24254C   25315.14843761  .00373723  00000+0  23024-2 0  9996",
    "TLE_LINE2": "2 62464  42.9945 216.9818 0005099 228.2513 131.7920 15.75303617 50756",
    "COMMENT": "Grouped by shell and plane from TLE"
  },
  {
    "OBJECT_NAME": "STARLINK-11178 [DTC]",
    "OBJECT_ID": "24254D",
    "EPOCH": "2025-11-11T03:20:57.590016",
    "MEAN_MOTION": 15.70842538,
    "ECCENTRICITY": 0.0001569,
    "INCLINATION": 43.0,
    "RA_OF_ASC_NODE": 217.8084,
    "ARG_OF_PERICENTER": 289.7839,
    "MEAN_ANOMALY": 70.286,
    "EPHEMERIS_TYPE": 0,
    "CLASSIFICATION_TYPE": "U",
    "NORAD_CAT_ID": 62465,
    "ELEMENT_SET_NO": 999,
    "REV_AT_EPOCH": 5059,
    "BSTAR": 0.0029232000000000004,
    "MEAN_MOTION_DOT": 0.00392977,
    "MEAN_MOTION_DDOT": 0.0,
    "TLE_LINE1": "1 62465U 24254D   25315.13955544  .00392977  00000+0  29232-2 0  9998",
    "TLE_LINE2": "2 62465  43.0000 217.8084 0001569 289.7839  70.2860 15.70842538 50594",
    "COMMENT": "Grouped by shell and plane from TLE"
  },
  {
    "OBJECT_NAME": "STARLINK-11506 [DTC]",
    "OBJECT_ID": "24254E",
    "EPOCH": "2025-11-11T02:19:48.383328",
    "MEAN_MOTION": 15.71095362,
    "ECCENTRICITY": 0.0001572,
    "INCLINATION": 42.9995,
    "RA_OF_ASC_NODE": 217.4643,
    "ARG_OF_PERICENTER": 334.0269,
    "MEAN_ANOMALY": 26.0519,
    "EPHEMERIS_TYPE": 0,
    "CLASSIFICATION_TYPE": "U",
    "NORAD_CAT_ID": 62466,
    "ELEMENT_SET_NO": 999,
    "REV_AT_EPOCH": 5059,
    "BSTAR": 0.0020384,
    "MEAN_MOTION_DOT": 0.00272785,
    "MEAN_MOTION_DDOT": 0.0,
    "TLE_LINE1": "1 62466U 24254E   25315.09708777  .00272785  00000+0  20384-2 0  9991",
    "TLE_LINE2": "2 62466  42.9995 217.4643 0001572 334.0269  26.0519 15.71095362 50594",
    "COMMENT": "Grouped by shell and plane from TLE"
  },
  {
    "OBJECT_NAME": "STARLINK-11486 [DTC]",
    "OBJECT_ID": "24254F",
    "EPOCH": "2025-11-11T08:00:03.000384",
    "MEAN_MOTION": 15.70897602,
    "ECCENTRICITY": 0.0001902,
    "INCLINATION": 43.0002,
    "RA_OF_ASC_NODE": 216.7139,
    "ARG_OF_PERICENTER": 266.307,
    "MEAN_ANOMALY": 81.0487,
    "EPHEMERIS_TYPE": 0,
    "CLASSIFICATION_TYPE": "U",
    "NORAD_CAT_ID": 62467,
    "ELEMENT_SET_NO": 999,
    "REV_AT_EPOCH": 601,
    "BSTAR": 0.0,
    "MEAN_MOTION_DOT": -0.00144704,
    "MEAN_MOTION_DDOT": 0.0,
    "TLE_LINE1": "1 62467U 24254F   25315.33336806 -.00144704  00000+0 -11411-2 0  9991",
    "TLE_LINE2": "2 62467  43.0002 216.7139 0001902 266.3070  81.0487 15.70897602  6011",
    "COMMENT": "Grouped by shell and plane from TLE"
  },
  {
    "OBJECT_NAME": "STARLINK-11511 [DTC]",
    "OBJECT_ID": "24254G",
    "EPOCH": "2025-11-11T01:26:27.486240",
    "MEAN_MOTION": 15.70901601,
    "ECCENTRICITY": 0.0002219,
    "INCLINATION": 42.9996,
    "RA_OF_ASC_NODE": 218.0603,
    "ARG_OF_PERICENTER": 281.2031,
    "MEAN_ANOMALY": 78.8587,
    "EPHEMERIS_TYPE": 0,
    "CLASSIFICATION_TYPE": "U",
    "NORAD_CAT_ID": 62468,
    "ELEMENT_SET_NO": 999,
    "REV_AT_EPOCH": 5074,
    "BSTAR": 0.0019854,
    "MEAN_MOTION_DOT": 0.00263216,
    "MEAN_MOTION_DDOT": 0.0,
    "TLE_LINE1": "1 62468U 24254G   25315.06004035  .00263216  00000+0  19854-2 0  9995",
    "TLE_LINE2": "2 62468  42.9996 218.0603 0002219 281.2031  78.8587 15.70901601 50747",
    "COMMENT": "Grouped by shell and plane from TLE"
  },
  {
    "OBJECT_NAME": "STARLINK-11505 [DTC]",
    "OBJECT_ID": "24254H",
    "EPOCH": "2025-11-11T02:42:43.928352",
    "MEAN_MOTION": 15.70908451,
    "ECCENTRICITY": 0.0001439,
    "INCLINATION": 42.9982,
    "RA_OF_ASC_NODE": 217.5919,
    "ARG_OF_PERICENTER": 255.7336,
    "MEAN_ANOMALY": 104.3371,
    "EPHEMERIS_TYPE": 0,
    "CLASSIFICATION_TYPE": "U",
    "NORAD_CAT_ID": 62469,
    "ELEMENT_SET_NO": 999,
    "REV_AT_EPOCH": 5074,
    "BSTAR": 0.0022626,
    "MEAN_MOTION_DOT": 0.00301528,
    "MEAN_MOTION_DDOT": 0.0,
    "TLE_LINE1": "1 62469U 24254H   25315.11300843  .00301528  00000+0  22626-2 0  9998",
    "TLE_LINE2": "2 62469  42.9982 217.5919 0001439 255.7336 104.3371 15.70908451 50740",
    "COMMENT": "Grouped by shell and plane from TLE"
  },
  {
    "OBJECT_NAME": "STARLINK-11497 [DTC]",
    "OBJECT_ID": "24254J",
    "EPOCH": "2025-11-11T03:05:39.358464",
    "MEAN_MOTION": 15.70887106,
    "ECCENTRICITY": 0.0002697,
    "INCLINATION": 43.0007,
    "RA_OF_ASC_NODE": 217.7194,
    "ARG_OF_PERICENTER": 242.455,
    "MEAN_ANOMALY": 117.6043,
    "EPHEMERIS_TYPE": 0,
    "CLASSIFICATION_TYPE": "U",
    "NORAD_CAT_ID": 62470,
    "ELEMENT_SET_NO": 999,
    "REV_AT_EPOCH": 5075,
    "BSTAR": 0.00097032,
    "MEAN_MOTION_DOT": 0.00126225,
    "MEAN_MOTION_DDOT": 0.0,
    "TLE_LINE1": "1 62470U 24254J   25315.12892776  .00126225  00000+0  97032-3 0  9995",
    "TLE_LINE2": "2 62470  43.0007 217.7194 0002697 242.4550 117.6043 15.70887106 50754",
    "COMMENT": "Grouped by shell and plane from TLE"
  },
  {
    "OBJECT_NAME": "STARLINK-11477 [DTC]",
    "OBJECT_ID": "24254K",
    "EPOCH": "2025-11-11T02:59:19.533696",
    "MEAN_MOTION": 15.70885903,
    "ECCENTRICITY": 0.0002022,
    "INCLINATION": 43.001,
    "RA_OF_ASC_NODE": 217.6829,
    "ARG_OF_PERICENTER": 252.7323,
    "MEAN_ANOMALY": 107.3323,
    "EPHEMERIS_TYPE": 0,
    "CLASSIFICATION_TYPE": "U",
    "NORAD_CAT_ID": 62471,
    "ELEMENT_SET_NO": 999,
    "REV_AT_EPOCH": 5074,
    "BSTAR": 0.0010068,
    "MEAN_MOTION_DOT": 0.00131045,
    "MEAN_MOTION_DDOT": 0.0,
    "TLE_LINE1": "1 62471U 24254K   25315.12453164  .00131045  00000+0  10068-2 0  9999",
    "TLE_LINE2": "2 62471  43.0010 217.6829 0002022 252.7323 107.3323 15.70885903 50746",
    "COMMENT": "Grouped by shell and plane from TLE"
  },
  {
    "OBJECT_NAME": "STARLINK-11500 [DTC]",
    "OBJECT_ID": "24254L",
    "EPOCH": "2025-11-11T02:27:26.093376",
    "MEAN_MOTION": 15.70899377,
    "ECCENTRICITY": 0.0002558,
    "INCLINATION": 43.0003,
    "RA_OF_ASC_NODE": 217.5059,
    "ARG_OF_PERICENTER": 267.088,
    "MEAN_ANOMALY": 92.9695,
    "EPHEMERIS_TYPE": 0,
    "CLASSIFICATION_TYPE": "U",
    "NORAD_CAT_ID": 62472,
    "ELEMENT_SET_NO": 999,
    "REV_AT_EPOCH": 5022,
    "BSTAR": 0.0017979,
    "MEAN_MOTION_DOT": 0.0023756,
    "MEAN_MOTION_DDOT": 0.0,
    "TLE_LINE1": "1 62472U 24254L   25315.10238534  .00237560  00000+0  17979-2 0  9997",
    "TLE_LINE2": "2 62472  43.0003 217.5059 0002558 267.0880  92.9695 15.70899377 50228",
    "COMMENT": "Grouped by shell and plane from TLE"
  },
  {
    "OBJECT_NAME": "STARLINK-11464 [DTC]",
    "OBJECT_ID": "24254M",
    "EPOCH": "2025-11-11T03:13:18.399072",
    "MEAN_MOTION": 15.70841438,
    "ECCENTRICITY": 0.0002101,
    "INCLINATION": 43.0002,
    "RA_OF_ASC_NODE": 217.7608,
    "ARG_OF_PERICENTER": 261.0443,
    "MEAN_ANOMALY": 99.0187,
    "EPHEMERIS_TYPE": 0,
    "CLASSIFICATION_TYPE": "U",
    "NORAD_CAT_ID": 62473,
    "ELEMENT_SET_NO": 999,
    "REV_AT_EPOCH": 5080,
    "BSTAR": 0.0021562,
    "MEAN_MOTION_DOT": 0.00285969,
    "MEAN_MOTION_DDOT": 0.0,
    "TLE_LINE1": "1 62473U 24254M   25315.13424073  .00285969  00000+0  21562-2 0  9995",
    "TLE_LINE2": "2 62473  43.0002 217.7608 0002101 261.0443  99.0187 15.70841438 50806",
    "COMMENT": "Grouped by shell and plane from TLE"
  },
  {
    "OBJECT_NAME": "STARLINK-11502 [DTC]",
    "OBJECT_ID": "24254N",
    "EPOCH": "2025-11-11T02:50:22.478208",
    "MEAN_MOTION": 15.70914122,
    "ECCENTRICITY": 0.0001726,
    "INCLINATION": 42.9989,
    "RA_OF_ASC_NODE": 217.6322,
    "ARG_OF_PERICENTER": 282.8763,
    "MEAN_ANOMALY": 77.1911,
    "EPHEMERIS_TYPE": 0,
    "CLASSIFICATION_TYPE": "U",
    "NORAD_CAT_ID": 62474,
    "ELEMENT_SET_NO": 999,
    "REV_AT_EPOCH": 5075,
    "BSTAR": 0.0024296,
    "MEAN_MOTION_DOT": 0.00324803,
    "MEAN_MOTION_DDOT": 0.0,
    "TLE_LINE1": "1 62474U 24254N   25315.11831572  .00324803  00000+0  24296-2 0  9998",
    "TLE_LINE2": "2 62474  42.9989 217.6322 0001726 282.8763  77.1911 15.70914122 50756",
    "COMMENT": "Grouped by shell and plane from TLE"
  }
]